<?xml version="1.0" encoding="UTF-8"?>
<ndm xmlns:xsi="http://www.w3.org/2001/XMLSchema-instance" xsi:noNamespaceSchemaLocation="https://sanaregistry.org/r/ndmxml_unqualified/ndmxml-2.0.0-master-2.0.xsd">
<omm id="CCSDS_OMM_VERS" version="2.0">
<header><CREATION_DATE/><ORIGINATOR/></header><body><segment><metadata><OBJECT_NAME>KUIPER-00071</OBJECT_NAME><OBJECT_ID>2025-151C</OBJECT_ID><CENTER_NAME>EARTH</CENTER_NAME><REF_FRAME>TEME</REF_FRAME><TIME_SYSTEM>UTC</TIME_SYSTEM><MEAN_ELEMENT_THEORY>SGP4</MEAN_ELEMENT_THEORY></metadata><data><meanElements><EPOCH>2025-11-02T07:04:35.239584</EPOCH><MEAN_MOTION>14.79891071</MEAN_MOTION><ECCENTRICITY>.0007897</ECCENTRICITY><INCLINATION>51.8995</INCLINATION><RA_OF_ASC_NODE>146.4147</RA_OF_ASC_NODE><ARG_OF_PERICENTER>156.7484</ARG_OF_PERICENTER><MEAN_ANOMALY>203.3836</MEAN_ANOMALY></meanElements><tleParameters><EPHEMERIS_TYPE>0</EPHEMERIS_TYPE><CLASSIFICATION_TYPE>U</CLASSIFICATION_TYPE><NORAD_CAT_ID>64818</NORAD_CAT_ID><ELEMENT_SET_NO>999</ELEMENT_SET_NO><REV_AT_EPOCH>1640</REV_AT_EPOCH><BSTAR>.46473E-3</BSTAR><MEAN_MOTION_DOT>.332E-4</MEAN_MOTION_DOT><MEAN_MOTION_DDOT>0</MEAN_MOTION_DDOT></tleParameters></data></segment></body></omm>
<omm id="CCSDS_OMM_VERS" version="2.0">
<header><CREATION_DATE/><ORIGINATOR/></header><body><segment><metadata><OBJECT_NAME>KUIPER-00072</OBJECT_NAME><OBJECT_ID>2025-151D</OBJECT_ID><CENTER_NAME>EARTH</CENTER_NAME><REF_FRAME>TEME</REF_FRAME><TIME_SYSTEM>UTC</TIME_SYSTEM><MEAN_ELEMENT_THEORY>SGP4</MEAN_ELEMENT_THEORY></metadata><data><meanElements><EPOCH>2025-11-02T12:00:02.000160</EPOCH><MEAN_MOTION>14.93371465</MEAN_MOTION><ECCENTRICITY>.0003215</ECCENTRICITY><INCLINATION>51.9181</INCLINATION><RA_OF_ASC_NODE>125.9819</RA_OF_ASC_NODE><ARG_OF_PERICENTER>153.4678</ARG_OF_PERICENTER><MEAN_ANOMALY>37.7089</MEAN_ANOMALY></meanElements><tleParameters><EPHEMERIS_TYPE>0</EPHEMERIS_TYPE><CLASSIFICATION_TYPE>U</CLASSIFICATION_TYPE><NORAD_CAT_ID>64819</NORAD_CAT_ID><ELEMENT_SET_NO>999</ELEMENT_SET_NO><REV_AT_EPOCH>555</REV_AT_EPOCH><BSTAR>-.88233E-1</BSTAR><MEAN_MOTION_DOT>-.876605E-2</MEAN_MOTION_DOT><MEAN_MOTION_DDOT>0</MEAN_MOTION_DDOT></tleParameters></data></segment></body></omm>
<omm id="CCSDS_OMM_VERS" version="2.0">
<header><CREATION_DATE/><ORIGINATOR/></header><body><segment><metadata><OBJECT_NAME>KUIPER-00073</OBJECT_NAME><OBJECT_ID>2025-151E</OBJECT_ID><CENTER_NAME>EARTH</CENTER_NAME><REF_FRAME>TEME</REF_FRAME><TIME_SYSTEM>UTC</TIME_SYSTEM><MEAN_ELEMENT_THEORY>SGP4</MEAN_ELEMENT_THEORY></metadata><data><meanElements><EPOCH>2025-11-02T06:15:21.603744</EPOCH><MEAN_MOTION>14.80014646</MEAN_MOTION><ECCENTRICITY>.0013536</ECCENTRICITY><INCLINATION>51.8986</INCLINATION><RA_OF_ASC_NODE>146.5593</RA_OF_ASC_NODE><ARG_OF_PERICENTER>186.9500</ARG_OF_PERICENTER><MEAN_ANOMALY>173.1277</MEAN_ANOMALY></meanElements><tleParameters><EPHEMERIS_TYPE>0</EPHEMERIS_TYPE><CLASSIFICATION_TYPE>U</CLASSIFICATION_TYPE><NORAD_CAT_ID>64820</NORAD_CAT_ID><ELEMENT_SET_NO>999</ELEMENT_SET_NO><REV_AT_EPOCH>1758</REV_AT_EPOCH><BSTAR>.47035E-3</BSTAR><MEAN_MOTION_DOT>.3375E-4</MEAN_MOTION_DOT><MEAN_MOTION_DDOT>0</MEAN_MOTION_DDOT></tleParameters></data></segment></body></omm>
<omm id="CCSDS_OMM_VERS" version="2.0">
<header><CREATION_DATE/><ORIGINATOR/></header><body><segment><metadata><OBJECT_NAME>KUIPER-00074</OBJECT_NAME><OBJECT_ID>2025-151F</OBJECT_ID><CENTER_NAME>EARTH</CENTER_NAME><REF_FRAME>TEME</REF_FRAME><TIME_SYSTEM>UTC</TIME_SYSTEM><MEAN_ELEMENT_THEORY>SGP4</MEAN_ELEMENT_THEORY></metadata><data><meanElements><EPOCH>2025-11-01T22:28:59.614176</EPOCH><MEAN_MOTION>14.79981595</MEAN_MOTION><ECCENTRICITY>.00122415</ECCENTRICITY><INCLINATION>51.8988</INCLINATION><RA_OF_ASC_NODE>135.5044</RA_OF_ASC_NODE><ARG_OF_PERICENTER>203.6064</ARG_OF_PERICENTER><MEAN_ANOMALY>156.4338</MEAN_ANOMALY></meanElements><tleParameters><EPHEMERIS_TYPE>0</EPHEMERIS_TYPE><CLASSIFICATION_TYPE>U</CLASSIFICATION_TYPE><NORAD_CAT_ID>64821</NORAD_CAT_ID><ELEMENT_SET_NO>999</ELEMENT_SET_NO><REV_AT_EPOCH>1652</REV_AT_EPOCH><BSTAR>-.40426185E-2</BSTAR><MEAN_MOTION_DOT>-.30978E-3</MEAN_MOTION_DOT><MEAN_MOTION_DDOT>0</MEAN_MOTION_DDOT></tleParameters></data></segment></body></omm>
<omm id="CCSDS_OMM_VERS" version="2.0">
<header><CREATION_DATE/><ORIGINATOR/></header><body><segment><metadata><OBJECT_NAME>KUIPER-00075</OBJECT_NAME><OBJECT_ID>2025-151G</OBJECT_ID><CENTER_NAME>EARTH</CENTER_NAME><REF_FRAME>TEME</REF_FRAME><TIME_SYSTEM>UTC</TIME_SYSTEM><MEAN_ELEMENT_THEORY>SGP4</MEAN_ELEMENT_THEORY></metadata><data><meanElements><EPOCH>2025-11-02T05:07:31.145088</EPOCH><MEAN_MOTION>15.39710988</MEAN_MOTION><ECCENTRICITY>.0005634</ECCENTRICITY><INCLINATION>51.8765</INCLINATION><RA_OF_ASC_NODE>120.8509</RA_OF_ASC_NODE><ARG_OF_PERICENTER>162.4433</ARG_OF_PERICENTER><MEAN_ANOMALY>197.6751</MEAN_ANOMALY></meanElements><tleParameters><EPHEMERIS_TYPE>0</EPHEMERIS_TYPE><CLASSIFICATION_TYPE>U</CLASSIFICATION_TYPE><NORAD_CAT_ID>64822</NORAD_CAT_ID><ELEMENT_SET_NO>999</ELEMENT_SET_NO><REV_AT_EPOCH>1675</REV_AT_EPOCH><BSTAR>.14222E-2</BSTAR><MEAN_MOTION_DOT>.57165E-3</MEAN_MOTION_DOT><MEAN_MOTION_DDOT>0</MEAN_MOTION_DDOT></tleParameters></data></segment></body></omm>
<omm id="CCSDS_OMM_VERS" version="2.0">
<header><CREATION_DATE/><ORIGINATOR/></header><body><segment><metadata><OBJECT_NAME>KUIPER-00076</OBJECT_NAME><OBJECT_ID>2025-151H</OBJECT_ID><CENTER_NAME>EARTH</CENTER_NAME><REF_FRAME>TEME</REF_FRAME><TIME_SYSTEM>UTC</TIME_SYSTEM><MEAN_ELEMENT_THEORY>SGP4</MEAN_ELEMENT_THEORY></metadata><data><meanElements><EPOCH>2025-11-02T06:31:26.150880</EPOCH><MEAN_MOTION>14.79919094</MEAN_MOTION><ECCENTRICITY>.0004141</ECCENTRICITY><INCLINATION>51.8982</INCLINATION><RA_OF_ASC_NODE>136.5225</RA_OF_ASC_NODE><ARG_OF_PERICENTER>194.4092</ARG_OF_PERICENTER><MEAN_ANOMALY>165.6753</MEAN_ANOMALY></meanElements><tleParameters><EPHEMERIS_TYPE>0</EPHEMERIS_TYPE><CLASSIFICATION_TYPE>U</CLASSIFICATION_TYPE><NORAD_CAT_ID>64823</NORAD_CAT_ID><ELEMENT_SET_NO>999</ELEMENT_SET_NO><REV_AT_EPOCH>1654</REV_AT_EPOCH><BSTAR>.45121E-3</BSTAR><MEAN_MOTION_DOT>.3219E-4</MEAN_MOTION_DOT><MEAN_MOTION_DDOT>0</MEAN_MOTION_DDOT></tleParameters></data></segment></body></omm>
<omm id="CCSDS_OMM_VERS" version="2.0">
<header><CREATION_DATE/><ORIGINATOR/></header><body><segment><metadata><OBJECT_NAME>KUIPER-00077</OBJECT_NAME><OBJECT_ID>2025-151J</OBJECT_ID><CENTER_NAME>EARTH</CENTER_NAME><REF_FRAME>TEME</REF_FRAME><TIME_SYSTEM>UTC</TIME_SYSTEM><MEAN_ELEMENT_THEORY>SGP4</MEAN_ELEMENT_THEORY></metadata><data><meanElements><EPOCH>2025-11-02T06:23:45.993984</EPOCH><MEAN_MOTION>14.79926256</MEAN_MOTION><ECCENTRICITY>.0006529</ECCENTRICITY><INCLINATION>51.9011</INCLINATION><RA_OF_ASC_NODE>141.5470</RA_OF_ASC_NODE><ARG_OF_PERICENTER>149.7650</ARG_OF_PERICENTER><MEAN_ANOMALY>210.3690</MEAN_ANOMALY></meanElements><tleParameters><EPHEMERIS_TYPE>0</EPHEMERIS_TYPE><CLASSIFICATION_TYPE>U</CLASSIFICATION_TYPE><NORAD_CAT_ID>64824</NORAD_CAT_ID><ELEMENT_SET_NO>999</ELEMENT_SET_NO><REV_AT_EPOCH>1647</REV_AT_EPOCH><BSTAR>.42931E-3</BSTAR><MEAN_MOTION_DOT>.3052E-4</MEAN_MOTION_DOT><MEAN_MOTION_DDOT>0</MEAN_MOTION_DDOT></tleParameters></data></segment></body></omm>
<omm id="CCSDS_OMM_VERS" version="2.0">
<header><CREATION_DATE/><ORIGINATOR/></header><body><segment><metadata><OBJECT_NAME>KUIPER-00078</OBJECT_NAME><OBJECT_ID>2025-151K</OBJECT_ID><CENTER_NAME>EARTH</CENTER_NAME><REF_FRAME>TEME</REF_FRAME><TIME_SYSTEM>UTC</TIME_SYSTEM><MEAN_ELEMENT_THEORY>SGP4</MEAN_ELEMENT_THEORY></metadata><data><meanElements><EPOCH>2025-11-01T19:55:32.153664</EPOCH><MEAN_MOTION>14.79888612</MEAN_MOTION><ECCENTRICITY>.00071347</ECCENTRICITY><INCLINATION>51.8986</INCLINATION><RA_OF_ASC_NODE>140.9755</RA_OF_ASC_NODE><ARG_OF_PERICENTER>212.7715</ARG_OF_PERICENTER><MEAN_ANOMALY>147.2806</MEAN_ANOMALY></meanElements><tleParameters><EPHEMERIS_TYPE>0</EPHEMERIS_TYPE><CLASSIFICATION_TYPE>U</CLASSIFICATION_TYPE><NORAD_CAT_ID>64825</NORAD_CAT_ID><ELEMENT_SET_NO>999</ELEMENT_SET_NO><REV_AT_EPOCH>1644</REV_AT_EPOCH><BSTAR>.51151982E-3</BSTAR><MEAN_MOTION_DOT>.3676E-4</MEAN_MOTION_DOT><MEAN_MOTION_DDOT>0</MEAN_MOTION_DDOT></tleParameters></data></segment></body></omm>

</ndm>
