64818,KUIPER-00071,2025,97.3,-1.0,+,51.9,Active,0,LEO,USA,USA,Unknown,Unknown,Unknown,1 64818U 25151C   25306.29485231  .00003320  00000+0  46473-3 0  9995,2 64818  51.8995 146.4147 0007897 156.7484 203.3836 14.79891071 16402,14.79891071,0.0007897,LEO
64819,KUIPER-00072,2025,96.46,-1.0,+,51.89,Active,0,LEO,USA,USA,Unknown,Unknown,Unknown,1 64819U 25151D   25306.50002315 -.00876605  00000+0 -88233-1 0  9992,2 64819  51.9181 125.9819 0003215 153.4678  37.7089 14.93371465  5557,14.93371465,0.0003215,LEO
64820,KUIPER-00073,2025,97.3,-1.0,+,51.9,Active,0,LEO,USA,USA,Unknown,Unknown,Unknown,1 64820U 25151E   25306.26066671  .00003375  00000+0  47035-3 0  9993,2 64820  51.8986 146.5593 0013536 186.9500 173.1277 14.80014646 17582,14.80014646,0.0013536,LEO
64821,KUIPER-00074,2025,97.3,-1.0,+,51.9,Active,0,LEO,USA,USA,Unknown,Unknown,Unknown,1 64821U 25151F   25305.93680109 -.00030978  00000+0 -40426-2 0  9992,2 64821  51.8988 135.5044 0012241 203.6064 156.4338 14.79981595 16527,14.79981595,0.0012241,LEO
64822,KUIPER-00075,2025,93.52,-1.0,+,51.88,Active,0,LEO,USA,USA,Unknown,Unknown,Unknown,1 64822U 25151G   25306.21355492  .00057165  00000+0  14222-2 0  9999,2 64822  51.8765 120.8509 0005634 162.4433 197.6751 15.39710988 16758,15.39710988,0.0005634,LEO
64823,KUIPER-00076,2025,97.3,-1.0,+,51.9,Active,0,LEO,USA,USA,Unknown,Unknown,Unknown,1 64823U 25151H   25306.27183045  .00003219  00000+0  45121-3 0  9993,2 64823  51.8982 136.5225 0004141 194.4092 165.6753 14.79919094 16543,14.79919094,0.0004141,LEO
64824,KUIPER-00077,2025,97.3,-1.0,+,51.9,Active,0,LEO,USA,USA,Unknown,Unknown,Unknown,1 64824U 25151J   25306.26650456  .00003052  00000+0  42931-3 0  9999,2 64824  51.9011 141.5470 0006529 149.7650 210.3690 14.79926256 16479,14.79926256,0.0006529,LEO
64825,KUIPER-00078,2025,97.3,-1.0,+,51.9,Active,0,LEO,USA,USA,Unknown,Unknown,Unknown,1 64825U 25151K   25305.83023326  .00003676  00000+0  51152-3 0  9999,2 64825  51.8986 140.9755 0007134 212.7715 147.2806 14.79888612 16442,14.79888612,0.0007134,LEO
